OBJECT_NAME,OBJECT_ID,EPOCH,MEAN_MOTION,ECCENTRICITY,INCLINATION,RA_OF_ASC_NODE,ARG_OF_PERICENTER,MEAN_ANOMALY,EPHEMERIS_TYPE,CLASSIFICATION_TYPE,NORAD_CAT_ID,ELEMENT_SET_NO,REV_AT_EPOCH,BSTAR,MEAN_MOTION_DOT,MEAN_MOTION_DDOT
HULIANWANG DIGUI-152,2026-013G,2026-06-25T19:54:40.862304,13.29331032,.0001176,50.0053,324.4073,146.2769,213.8178,0,U,67528,999,2120,.88602E-4,-.83E-6,0
HULIANWANG DIGUI-153,2026-013H,2026-06-25T16:06:07.665120,13.29330740,.000118,50.0054,324.9054,145.8912,214.2036,0,U,67529,999,2117,.79737E-4,-.87E-6,0
HULIANWANG DIGUI-154,2026-013J,2026-06-25T19:30:36.021888,13.29330948,.0001184,50.0079,324.3583,146.3360,213.7588,0,U,67530,999,2119,.69453E-4,-.92E-6,0
STARLINK-36587,2026-014A,2026-06-25T15:57:33.757920,15.33455995,.0001832,97.2866,63.3067,103.6782,256.4665,0,U,67532,999,2533,.82674E-3,.2672E-3,0
STARLINK-36417,2026-014B,2026-06-25T15:18:24.702624,15.33466040,.0001854,97.2860,63.1890,91.9406,268.2049,0,U,67533,999,2532,.10437E-2,.33795E-3,0
STARLINK-36576,2026-014C,2026-06-25T16:36:42.889248,15.33464694,.0001462,97.2868,63.2699,81.7461,278.3948,0,U,67534,999,2533,.96555E-3,.31245E-3,0
STARLINK-36574,2026-014D,2026-06-25T16:09:18.834624,15.33483643,.0002241,97.2854,63.2931,66.5045,293.6433,0,U,67535,999,2533,.85587E-3,.27692E-3,0
STARLINK-36572,2026-014E,2026-06-25T16:40:37.422048,15.33471327,.0001629,97.2857,63.2644,91.4537,268.6892,0,U,67536,999,2533,.89509E-3,.28957E-3,0
STARLINK-36561,2026-014F,2026-06-25T16:28:53.025312,15.33462828,.0001658,97.2859,63.2735,96.9902,263.1529,0,U,67537,999,2533,.10154E-2,.32867E-3,0
STARLINK-36397,2026-014G,2026-06-25T16:05:23.831808,15.33483625,.0001825,97.2858,63.2950,96.6022,263.5428,0,U,67538,999,2533,.10692E-2,.34644E-3,0
STARLINK-36573,2026-014H,2026-06-25T16:24:58.202208,15.33457668,.0001766,97.2861,63.2802,86.5048,273.6396,0,U,67539,999,2533,.73076E-3,.236E-3,0
STARLINK-36585,2026-014J,2026-06-25T16:17:08.272608,15.33446188,.0001342,97.2873,63.2871,65.1396,294.9986,0,U,67540,999,2533,.93831E-3,.3034E-3,0
STARLINK-36579,2026-014K,2026-06-25T15:30:09.470880,15.33461615,.0001554,97.2865,63.3311,85.2688,274.8732,0,U,67541,999,2533,.86412E-3,.2794E-3,0
STARLINK-35934,2026-014L,2026-06-25T15:37:59.301984,15.33451568,.0001641,97.2863,63.3249,87.2437,272.8994,0,U,67542,999,2532,.77823E-3,.25139E-3,0
STARLINK-36581,2026-014M,2026-06-25T16:21:03.818016,15.33426497,.0001154,97.2883,63.2847,10.6940,349.4327,0,U,67543,999,2533,.18069E-3,.5759E-4,0
STARLINK-36565,2026-014N,2026-06-25T16:32:47.660064,15.33430436,.0001701,97.2860,63.2723,89.1345,271.0093,0,U,67544,999,2533,.5605E-3,.18055E-3,0
STARLINK-36583,2026-014P,2026-06-25T15:53:38.810400,15.33453483,.0001731,97.2864,63.3095,105.1356,255.0079,0,U,67545,999,2533,.73335E-3,.23681E-3,0
STARLINK-36580,2026-014Q,2026-06-25T16:44:32.718624,15.33459702,.0001681,97.2862,63.2621,86.7072,273.4363,0,U,67546,999,2533,.62031E-3,.20014E-3,0
STARLINK-36584,2026-014R,2026-06-25T15:45:49.140000,15.33458078,.0001636,97.2869,63.3182,90.3955,269.7475,0,U,67547,999,2533,.89119E-3,.28818E-3,0
STARLINK-36586,2026-014S,2026-06-25T15:41:54.186432,15.33449328,.0001505,97.2870,63.3232,83.6709,276.4705,0,U,67548,999,2533,.65745E-3,.21213E-3,0
STARLINK-36564,2026-014T,2026-06-25T15:14:31.204032,15.33450691,.0001893,97.2865,63.1940,103.7992,256.3462,0,U,67549,999,2526,.66811E-3,.2156E-3,0
STARLINK-36563,2026-014U,2026-06-25T15:34:04.315584,15.33447356,.0001409,97.2863,63.3279,87.2122,272.9282,0,U,67550,999,2533,.47325E-3,.15235E-3,0
STARLINK-36566,2026-014V,2026-06-25T15:22:19.109280,15.33423031,.0001792,97.2863,63.1869,102.7597,257.3846,0,U,67551,999,2531,.79604E-3,.25695E-3,0
STARLINK-36567,2026-014W,2026-06-25T15:49:43.959648,15.33455868,.000159,97.2866,63.3107,95.7074,264.4350,0,U,67552,999,2532,.84439E-3,.27293E-3,0
STARLINK-36569,2026-014X,2026-06-25T16:01:28.733088,15.33457290,.000174,97.2866,63.3033,86.3211,273.8231,0,U,67553,999,2532,.8657E-3,.27988E-3,0
STARLINK-36395,2026-014Y,2026-06-25T16:20:26.543328,15.33452345,.0002199,97.2861,66.1845,102.3583,257.7906,0,U,67554,999,2551,.92288E-3,.29845E-3,0
STARLINK-36559,2026-014Z,2026-06-25T16:13:13.344096,15.33459069,.0001844,97.2870,63.2918,114.2602,245.8833,0,U,67555,999,2532,.82977E-3,.26821E-3,0
MR-2,2026-015A,2026-06-25T17:02:17.197728,13.52694895,.0005062,89.0004,267.6750,70.8667,289.3033,0,U,67556,999,2086,.98427E-5,.19E-6,0
MR-1,2026-015B,2026-06-25T17:06:25.316928,13.52669313,.0005097,89.0003,267.6749,69.7214,290.4486,0,U,67557,999,2086,.20643E-4,.26E-6,0
STARLINK-36426,2026-014AA,2026-06-25T15:26:14.502624,15.33450357,.00015,97.2862,63.3357,87.2680,272.8735,0,U,67560,999,2532,.49474E-3,.15933E-3,0
