HULIANWANG DIGUI-152    
1 67528U 26013G   26176.82963961 -.00000083  00000+0  88602-4 0  9995
2 67528  50.0053 324.4073 0001176 146.2769 213.8178 13.29331032 21208
HULIANWANG DIGUI-153    
1 67529U 26013H   26176.67092205 -.00000087  00000+0  79737-4 0  9996
2 67529  50.0054 324.9054 0001180 145.8912 214.2036 13.29330740 21173
HULIANWANG DIGUI-154    
1 67530U 26013J   26176.81291692 -.00000092  00000+0  69453-4 0  9995
2 67530  50.0079 324.3583 0001184 146.3360 213.7588 13.29330948 21198
STARLINK-36587          
1 67532U 26014A   26176.66497405  .00026720  00000+0  82674-3 0  9995
2 67532  97.2866  63.3067 0001832 103.6782 256.4665 15.33455995 25335
STARLINK-36417          
1 67533U 26014B   26176.63778591  .00033795  00000+0  10437-2 0  9998
2 67533  97.2860  63.1890 0001854  91.9406 268.2049 15.33466040 25327
STARLINK-36576          
1 67534U 26014C   26176.69216307  .00031245  00000+0  96555-3 0  9991
2 67534  97.2868  63.2699 0001462  81.7461 278.3948 15.33464694 25331
STARLINK-36574          
1 67535U 26014D   26176.67313466  .00027692  00000+0  85587-3 0  9998
2 67535  97.2854  63.2931 0002241  66.5045 293.6433 15.33483643 25335
STARLINK-36572          
1 67536U 26014E   26176.69487757  .00028957  00000+0  89509-3 0  9999
2 67536  97.2857  63.2644 0001629  91.4537 268.6892 15.33471327 25339
STARLINK-36561          
1 67537U 26014F   26176.68672483  .00032867  00000+0  10154-2 0  9995
2 67537  97.2859  63.2735 0001658  96.9902 263.1529 15.33462828 25334
STARLINK-36397          
1 67538U 26014G   26176.67041472  .00034644  00000+0  10692-2 0  9995
2 67538  97.2858  63.2950 0001825  96.6022 263.5428 15.33483625 25339
STARLINK-36573          
1 67539U 26014H   26176.68400697  .00023600  00000+0  73076-3 0  9991
2 67539  97.2861  63.2802 0001766  86.5048 273.6396 15.33457668 25334
STARLINK-36585          
1 67540U 26014J   26176.67856797  .00030340  00000+0  93831-3 0  9998
2 67540  97.2873  63.2871 0001342  65.1396 294.9986 15.33446188 25330
STARLINK-36579          
1 67541U 26014K   26176.64594295  .00027940  00000+0  86412-3 0  9997
2 67541  97.2865  63.3311 0001554  85.2688 274.8732 15.33461615 25332
STARLINK-35934          
1 67542U 26014L   26176.65138081  .00025139  00000+0  77823-3 0  9990
2 67542  97.2863  63.3249 0001641  87.2437 272.8994 15.33451568 25325
STARLINK-36581          
1 67543U 26014M   26176.68129419  .00005759  00000+0  18069-3 0  9992
2 67543  97.2883  63.2847 0001154  10.6940 349.4327 15.33426497 25334
STARLINK-36565          
1 67544U 26014N   26176.68944051  .00018055  00000+0  56050-3 0  9995
2 67544  97.2860  63.2723 0001701  89.1345 271.0093 15.33430436 25339
STARLINK-36583          
1 67545U 26014P   26176.66225475  .00023681  00000+0  73335-3 0  9992
2 67545  97.2864  63.3095 0001731 105.1356 255.0079 15.33453483 25334
STARLINK-36580          
1 67546U 26014Q   26176.69760091  .00020014  00000+0  62031-3 0  9992
2 67546  97.2862  63.2621 0001681  86.7072 273.4363 15.33459702 25330
STARLINK-36584          
1 67547U 26014R   26176.65681875  .00028818  00000+0  89119-3 0  9997
2 67547  97.2869  63.3182 0001636  90.3955 269.7475 15.33458078 25339
STARLINK-36586          
1 67548U 26014S   26176.65409938  .00021213  00000+0  65745-3 0  9997
2 67548  97.2870  63.3232 0001505  83.6709 276.4705 15.33449328 25334
STARLINK-36564          
1 67549U 26014T   26176.63508338  .00021560  00000+0  66811-3 0  9990
2 67549  97.2865  63.1940 0001893 103.7992 256.3462 15.33450691 25265
STARLINK-36563          
1 67550U 26014U   26176.64866106  .00015235  00000+0  47325-3 0  9994
2 67550  97.2863  63.3279 0001409  87.2122 272.9282 15.33447356 25332
STARLINK-36566          
1 67551U 26014V   26176.64049895  .00025695  00000+0  79604-3 0  9999
2 67551  97.2863  63.1869 0001792 102.7597 257.3846 15.33423031 25315
STARLINK-36567          
1 67552U 26014W   26176.65953657  .00027293  00000+0  84439-3 0  9999
2 67552  97.2866  63.3107 0001590  95.7074 264.4350 15.33455868 25326
STARLINK-36569          
1 67553U 26014X   26176.66769367  .00027988  00000+0  86570-3 0  9993
2 67553  97.2866  63.3033 0001740  86.3211 273.8231 15.33457290 25324
STARLINK-36395          
1 67554U 26014Y   26176.68086277  .00029845  00000+0  92288-3 0  9995
2 67554  97.2861  66.1845 0002199 102.3583 257.7906 15.33452345 25519
STARLINK-36559          
1 67555U 26014Z   26176.67584889  .00026821  00000+0  82977-3 0  9992
2 67555  97.2870  63.2918 0001844 114.2602 245.8833 15.33459069 25325
MR-2                    
1 67556U 26015A   26176.70992127  .00000019  00000+0  98427-5 0  9996
2 67556  89.0004 267.6750 0005062  70.8667 289.3033 13.52694895 20868
MR-1                    
1 67557U 26015B   26176.71279302  .00000026  00000+0  20643-4 0  9993
2 67557  89.0003 267.6749 0005097  69.7214 290.4486 13.52669313 20861
STARLINK-36426          
1 67560U 26014AA  26176.64322341  .00015933  00000+0  49474-3 0  9995
2 67560  97.2862  63.3357 0001500  87.2680 272.8735 15.33450357 25326
